43072,IRIDIUM 116,2017,100.4,860.0,+,86.4,Active,1,LEO,USA,USA,Commercial/Government,Communications,Falcon,1 43072U 17083C   24056.62059359  .00000053  00000+0  11981-4 0  9992,2 43072  86.3984 314.1576 0002238  83.5345 276.6105 14.34217151323404,14.34217151,0.0002238,LEO
43073,IRIDIUM 130,2017,100.4,860.0,+,86.4,Active,1,LEO,USA,USA,Commercial/Government,Communications,Falcon,1 43073U 17083D   24056.44932900  .00000039  00000+0  67691-5 0  9999,2 43073  86.3993 314.4226 0001957  88.0060 272.1359 14.34213623323324,14.34213623,0.0001957,LEO
43074,IRIDIUM 151,2017,100.4,860.0,+,86.4,Active,1,LEO,USA,USA,Commercial/Government,Communications,Falcon,1 43074U 17083E   24056.42396674  .00000350  00000+0  11807-3 0  9992,2 43074  86.3987 314.2784 0002124  75.3373 284.8058 14.34220962323340,14.34220962,0.0002124,LEO
43075,IRIDIUM 134,2017,100.4,860.0,+,86.4,Active,1,LEO,USA,USA,Commercial/Government,Communications,Falcon,1 43075U 17083F   24056.53179612  .00000115  00000+0  34075-4 0  9998,2 43075  86.3986 314.2300 0002078  90.2505 269.8929 14.34217665323329,14.34217665,0.0002078,LEO
43076,IRIDIUM 137,2017,100.4,860.0,+,86.4,Active,1,LEO,USA,USA,Commercial/Government,Communications,Falcon,1 43076U 17083G   24056.47471642  .00000290  00000+0  96621-4 0  9999,2 43076  86.3989 314.3297 0002421  78.4723 281.6745 14.34218204323385,14.34218204,0.0002421,LEO
43077,IRIDIUM 141,2017,100.4,860.0,+,86.4,Active,1,LEO,USA,USA,Commercial/Government,Communications,Falcon,1 43077U 17083H   24056.46837429  .00000302  00000+0  10064-3 0  9998,2 43077  86.3983 314.2107 0001972  85.2818 274.8603 14.34219154323382,14.34219154,0.0001972,LEO
43078,IRIDIUM 153,2017,100.4,860.0,+,86.39,Active,1,LEO,USA,USA,Commercial/Government,Communications,Falcon,1 43078U 17083J   24056.56007185  .00000456  00000+0  15587-3 0  9993,2 43078  86.3933 282.6128 0001652  78.6028 281.5353 14.34219875324505,14.34219875,0.0001652,LEO
43079,IRIDIUM 131,2017,100.4,860.0,+,86.4,Active,1,LEO,USA,USA,Commercial/Government,Communications,Falcon,1 43079U 17083K   24056.45568660  .00000411  00000+0  13953-3 0  9998,2 43079  86.3990 314.3458 0002185  82.8122 277.3322 14.34219132323315,14.34219132,0.0002185,LEO
