<?xml version="1.0" encoding="UTF-8"?>
<ndm xmlns:xsi="http://www.w3.org/2001/XMLSchema-instance" xsi:noNamespaceSchemaLocation="https://sanaregistry.org/r/ndmxml_unqualified/ndmxml-2.0.0-master-2.0.xsd">
<omm id="CCSDS_OMM_VERS" version="2.0">
<header><CREATION_DATE/><ORIGINATOR/></header><body><segment><metadata><OBJECT_NAME>IRIDIUM 116</OBJECT_NAME><OBJECT_ID>2017-083C</OBJECT_ID><CENTER_NAME>EARTH</CENTER_NAME><REF_FRAME>TEME</REF_FRAME><TIME_SYSTEM>UTC</TIME_SYSTEM><MEAN_ELEMENT_THEORY>SGP4</MEAN_ELEMENT_THEORY></metadata><data><meanElements><EPOCH>2024-02-25T14:53:39.286176</EPOCH><MEAN_MOTION>14.34217151</MEAN_MOTION><ECCENTRICITY>.0002238</ECCENTRICITY><INCLINATION>86.3984</INCLINATION><RA_OF_ASC_NODE>314.1576</RA_OF_ASC_NODE><ARG_OF_PERICENTER>83.5345</ARG_OF_PERICENTER><MEAN_ANOMALY>276.6105</MEAN_ANOMALY></meanElements><tleParameters><EPHEMERIS_TYPE>0</EPHEMERIS_TYPE><CLASSIFICATION_TYPE>U</CLASSIFICATION_TYPE><NORAD_CAT_ID>43072</NORAD_CAT_ID><ELEMENT_SET_NO>999</ELEMENT_SET_NO><REV_AT_EPOCH>32340</REV_AT_EPOCH><BSTAR>.11981E-4</BSTAR><MEAN_MOTION_DOT>.53E-6</MEAN_MOTION_DOT><MEAN_MOTION_DDOT>0</MEAN_MOTION_DDOT></tleParameters></data></segment></body></omm>
<omm id="CCSDS_OMM_VERS" version="2.0">
<header><CREATION_DATE/><ORIGINATOR/></header><body><segment><metadata><OBJECT_NAME>IRIDIUM 130</OBJECT_NAME><OBJECT_ID>2017-083D</OBJECT_ID><CENTER_NAME>EARTH</CENTER_NAME><REF_FRAME>TEME</REF_FRAME><TIME_SYSTEM>UTC</TIME_SYSTEM><MEAN_ELEMENT_THEORY>SGP4</MEAN_ELEMENT_THEORY></metadata><data><meanElements><EPOCH>2024-02-25T10:47:02.025600</EPOCH><MEAN_MOTION>14.34213623</MEAN_MOTION><ECCENTRICITY>.0001957</ECCENTRICITY><INCLINATION>86.3993</INCLINATION><RA_OF_ASC_NODE>314.4226</RA_OF_ASC_NODE><ARG_OF_PERICENTER>88.0060</ARG_OF_PERICENTER><MEAN_ANOMALY>272.1359</MEAN_ANOMALY></meanElements><tleParameters><EPHEMERIS_TYPE>0</EPHEMERIS_TYPE><CLASSIFICATION_TYPE>U</CLASSIFICATION_TYPE><NORAD_CAT_ID>43073</NORAD_CAT_ID><ELEMENT_SET_NO>999</ELEMENT_SET_NO><REV_AT_EPOCH>32332</REV_AT_EPOCH><BSTAR>.67691E-5</BSTAR><MEAN_MOTION_DOT>.39E-6</MEAN_MOTION_DOT><MEAN_MOTION_DDOT>0</MEAN_MOTION_DDOT></tleParameters></data></segment></body></omm>
<omm id="CCSDS_OMM_VERS" version="2.0">
<header><CREATION_DATE/><ORIGINATOR/></header><body><segment><metadata><OBJECT_NAME>IRIDIUM 151</OBJECT_NAME><OBJECT_ID>2017-083E</OBJECT_ID><CENTER_NAME>EARTH</CENTER_NAME><REF_FRAME>TEME</REF_FRAME><TIME_SYSTEM>UTC</TIME_SYSTEM><MEAN_ELEMENT_THEORY>SGP4</MEAN_ELEMENT_THEORY></metadata><data><meanElements><EPOCH>2024-02-25T10:10:30.726336</EPOCH><MEAN_MOTION>14.34220962</MEAN_MOTION><ECCENTRICITY>.0002124</ECCENTRICITY><INCLINATION>86.3987</INCLINATION><RA_OF_ASC_NODE>314.2784</RA_OF_ASC_NODE><ARG_OF_PERICENTER>75.3373</ARG_OF_PERICENTER><MEAN_ANOMALY>284.8058</MEAN_ANOMALY></meanElements><tleParameters><EPHEMERIS_TYPE>0</EPHEMERIS_TYPE><CLASSIFICATION_TYPE>U</CLASSIFICATION_TYPE><NORAD_CAT_ID>43074</NORAD_CAT_ID><ELEMENT_SET_NO>999</ELEMENT_SET_NO><REV_AT_EPOCH>32334</REV_AT_EPOCH><BSTAR>.11807E-3</BSTAR><MEAN_MOTION_DOT>.35E-5</MEAN_MOTION_DOT><MEAN_MOTION_DDOT>0</MEAN_MOTION_DDOT></tleParameters></data></segment></body></omm>
<omm id="CCSDS_OMM_VERS" version="2.0">
<header><CREATION_DATE/><ORIGINATOR/></header><body><segment><metadata><OBJECT_NAME>IRIDIUM 134</OBJECT_NAME><OBJECT_ID>2017-083F</OBJECT_ID><CENTER_NAME>EARTH</CENTER_NAME><REF_FRAME>TEME</REF_FRAME><TIME_SYSTEM>UTC</TIME_SYSTEM><MEAN_ELEMENT_THEORY>SGP4</MEAN_ELEMENT_THEORY></metadata><data><meanElements><EPOCH>2024-02-25T12:45:47.184768</EPOCH><MEAN_MOTION>14.34217665</MEAN_MOTION><ECCENTRICITY>.0002078</ECCENTRICITY><INCLINATION>86.3986</INCLINATION><RA_OF_ASC_NODE>314.2300</RA_OF_ASC_NODE><ARG_OF_PERICENTER>90.2505</ARG_OF_PERICENTER><MEAN_ANOMALY>269.8929</MEAN_ANOMALY></meanElements><tleParameters><EPHEMERIS_TYPE>0</EPHEMERIS_TYPE><CLASSIFICATION_TYPE>U</CLASSIFICATION_TYPE><NORAD_CAT_ID>43075</NORAD_CAT_ID><ELEMENT_SET_NO>999</ELEMENT_SET_NO><REV_AT_EPOCH>32332</REV_AT_EPOCH><BSTAR>.34075E-4</BSTAR><MEAN_MOTION_DOT>.115E-5</MEAN_MOTION_DOT><MEAN_MOTION_DDOT>0</MEAN_MOTION_DDOT></tleParameters></data></segment></body></omm>
<omm id="CCSDS_OMM_VERS" version="2.0">
<header><CREATION_DATE/><ORIGINATOR/></header><body><segment><metadata><OBJECT_NAME>IRIDIUM 137</OBJECT_NAME><OBJECT_ID>2017-083G</OBJECT_ID><CENTER_NAME>EARTH</CENTER_NAME><REF_FRAME>TEME</REF_FRAME><TIME_SYSTEM>UTC</TIME_SYSTEM><MEAN_ELEMENT_THEORY>SGP4</MEAN_ELEMENT_THEORY></metadata><data><meanElements><EPOCH>2024-02-25T11:23:35.498688</EPOCH><MEAN_MOTION>14.34218204</MEAN_MOTION><ECCENTRICITY>.0002421</ECCENTRICITY><INCLINATION>86.3989</INCLINATION><RA_OF_ASC_NODE>314.3297</RA_OF_ASC_NODE><ARG_OF_PERICENTER>78.4723</ARG_OF_PERICENTER><MEAN_ANOMALY>281.6745</MEAN_ANOMALY></meanElements><tleParameters><EPHEMERIS_TYPE>0</EPHEMERIS_TYPE><CLASSIFICATION_TYPE>U</CLASSIFICATION_TYPE><NORAD_CAT_ID>43076</NORAD_CAT_ID><ELEMENT_SET_NO>999</ELEMENT_SET_NO><REV_AT_EPOCH>32338</REV_AT_EPOCH><BSTAR>.96621E-4</BSTAR><MEAN_MOTION_DOT>.29E-5</MEAN_MOTION_DOT><MEAN_MOTION_DDOT>0</MEAN_MOTION_DDOT></tleParameters></data></segment></body></omm>
<omm id="CCSDS_OMM_VERS" version="2.0">
<header><CREATION_DATE/><ORIGINATOR/></header><body><segment><metadata><OBJECT_NAME>IRIDIUM 141</OBJECT_NAME><OBJECT_ID>2017-083H</OBJECT_ID><CENTER_NAME>EARTH</CENTER_NAME><REF_FRAME>TEME</REF_FRAME><TIME_SYSTEM>UTC</TIME_SYSTEM><MEAN_ELEMENT_THEORY>SGP4</MEAN_ELEMENT_THEORY></metadata><data><meanElements><EPOCH>2024-02-25T11:14:27.538656</EPOCH><MEAN_MOTION>14.34219154</MEAN_MOTION><ECCENTRICITY>.0001972</ECCENTRICITY><INCLINATION>86.3983</INCLINATION><RA_OF_ASC_NODE>314.2107</RA_OF_ASC_NODE><ARG_OF_PERICENTER>85.2818</ARG_OF_PERICENTER><MEAN_ANOMALY>274.8603</MEAN_ANOMALY></meanElements><tleParameters><EPHEMERIS_TYPE>0</EPHEMERIS_TYPE><CLASSIFICATION_TYPE>U</CLASSIFICATION_TYPE><NORAD_CAT_ID>43077</NORAD_CAT_ID><ELEMENT_SET_NO>999</ELEMENT_SET_NO><REV_AT_EPOCH>32338</REV_AT_EPOCH><BSTAR>.10064E-3</BSTAR><MEAN_MOTION_DOT>.302E-5</MEAN_MOTION_DOT><MEAN_MOTION_DDOT>0</MEAN_MOTION_DDOT></tleParameters></data></segment></body></omm>
<omm id="CCSDS_OMM_VERS" version="2.0">
<header><CREATION_DATE/><ORIGINATOR/></header><body><segment><metadata><OBJECT_NAME>IRIDIUM 153</OBJECT_NAME><OBJECT_ID>2017-083J</OBJECT_ID><CENTER_NAME>EARTH</CENTER_NAME><REF_FRAME>TEME</REF_FRAME><TIME_SYSTEM>UTC</TIME_SYSTEM><MEAN_ELEMENT_THEORY>SGP4</MEAN_ELEMENT_THEORY></metadata><data><meanElements><EPOCH>2024-02-25T13:26:30.207840</EPOCH><MEAN_MOTION>14.34219875</MEAN_MOTION><ECCENTRICITY>.0001652</ECCENTRICITY><INCLINATION>86.3933</INCLINATION><RA_OF_ASC_NODE>282.6128</RA_OF_ASC_NODE><ARG_OF_PERICENTER>78.6028</ARG_OF_PERICENTER><MEAN_ANOMALY>281.5353</MEAN_ANOMALY></meanElements><tleParameters><EPHEMERIS_TYPE>0</EPHEMERIS_TYPE><CLASSIFICATION_TYPE>U</CLASSIFICATION_TYPE><NORAD_CAT_ID>43078</NORAD_CAT_ID><ELEMENT_SET_NO>999</ELEMENT_SET_NO><REV_AT_EPOCH>32450</REV_AT_EPOCH><BSTAR>.15587E-3</BSTAR><MEAN_MOTION_DOT>.456E-5</MEAN_MOTION_DOT><MEAN_MOTION_DDOT>0</MEAN_MOTION_DDOT></tleParameters></data></segment></body></omm>
<omm id="CCSDS_OMM_VERS" version="2.0">
<header><CREATION_DATE/><ORIGINATOR/></header><body><segment><metadata><OBJECT_NAME>IRIDIUM 131</OBJECT_NAME><OBJECT_ID>2017-083K</OBJECT_ID><CENTER_NAME>EARTH</CENTER_NAME><REF_FRAME>TEME</REF_FRAME><TIME_SYSTEM>UTC</TIME_SYSTEM><MEAN_ELEMENT_THEORY>SGP4</MEAN_ELEMENT_THEORY></metadata><data><meanElements><EPOCH>2024-02-25T10:56:11.322240</EPOCH><MEAN_MOTION>14.34219132</MEAN_MOTION><ECCENTRICITY>.0002185</ECCENTRICITY><INCLINATION>86.3990</INCLINATION><RA_OF_ASC_NODE>314.3458</RA_OF_ASC_NODE><ARG_OF_PERICENTER>82.8122</ARG_OF_PERICENTER><MEAN_ANOMALY>277.3322</MEAN_ANOMALY></meanElements><tleParameters><EPHEMERIS_TYPE>0</EPHEMERIS_TYPE><CLASSIFICATION_TYPE>U</CLASSIFICATION_TYPE><NORAD_CAT_ID>43079</NORAD_CAT_ID><ELEMENT_SET_NO>999</ELEMENT_SET_NO><REV_AT_EPOCH>32331</REV_AT_EPOCH><BSTAR>.13953E-3</BSTAR><MEAN_MOTION_DOT>.411E-5</MEAN_MOTION_DOT><MEAN_MOTION_DDOT>0</MEAN_MOTION_DDOT></tleParameters></data></segment></body></omm>

</ndm>
